{
  "links" : {
    "next" : "https://api.nasa.gov/neo/rest/v1/feed?start_date=2014-03-23&end_date=2014-03-23&detailed=true&api_key=t0TVs3DtDT2H8Oy2Zy8m2eVrNsAVKAexjcZXUckd",
    "prev" : "https://api.nasa.gov/neo/rest/v1/feed?start_date=2014-03-21&end_date=2014-03-21&detailed=true&api_key=t0TVs3DtDT2H8Oy2Zy8m2eVrNsAVKAexjcZXUckd",
    "self" : "https://api.nasa.gov/neo/rest/v1/feed?start_date=2014-03-22&end_date=2014-03-22&detailed=true&api_key=t0TVs3DtDT2H8Oy2Zy8m2eVrNsAVKAexjcZXUckd"
  },
  "element_count" : 9,
  "near_earth_objects" : {
    "2014-03-22" : [ {
      "links" : {
        "self" : "https://api.nasa.gov/neo/rest/v1/neo/3669221?api_key=t0TVs3DtDT2H8Oy2Zy8m2eVrNsAVKAexjcZXUckd"
      },
      "neo_reference_id" : "3669221",
      "name" : "(2014 HL123)",
      "nasa_jpl_url" : "http://ssd.jpl.nasa.gov/sbdb.cgi?sstr=3669221",
      "absolute_magnitude_h" : 22.4,
      "estimated_diameter" : {
        "kilometers" : {
          "estimated_diameter_min" : 0.0880146521,
          "estimated_diameter_max" : 0.1968067451
        },
        "meters" : {
          "estimated_diameter_min" : 88.0146520901,
          "estimated_diameter_max" : 196.8067450894
        },
        "miles" : {
          "estimated_diameter_min" : 0.0546897524,
          "estimated_diameter_max" : 0.122290004
        },
        "feet" : {
          "estimated_diameter_min" : 288.7619911632,
          "estimated_diameter_max" : 645.6914415591
        }
      },
      "is_potentially_hazardous_asteroid" : false,
      "close_approach_data" : [ {
        "close_approach_date" : "2014-03-22",
        "epoch_date_close_approach" : 1395471600000,
        "relative_velocity" : {
          "kilometers_per_second" : "5.8485945564",
          "kilometers_per_hour" : "21054.9404030852",
          "miles_per_hour" : "13082.7211632393"
        },
        "miss_distance" : {
          "astronomical" : "0.2162436739",
          "lunar" : "84.1187896729",
          "kilometers" : "32349592",
          "miles" : "20101106"
        },
        "orbiting_body" : "Earth"
      } ],
      "orbital_data" : {
        "orbit_id" : "12",
        "orbit_determination_date" : "2017-04-06 08:41:25",
        "orbit_uncertainty" : "8",
        "minimum_orbit_intersection" : ".175181",
        "jupiter_tisserand_invariant" : "4.100",
        "epoch_osculation" : "2456773.5",
        "eccentricity" : ".3906793004384628",
        "semi_major_axis" : "1.694073793488156",
        "inclination" : "11.87719300905982",
        "ascending_node_longitude" : "43.50315594995533",
        "orbital_period" : "805.3727167855841",
        "perihelion_distance" : "1.03223422895707",
        "perihelion_argument" : "100.3256697346829",
        "aphelion_distance" : "2.355913358019241",
        "perihelion_time" : "2456697.118709935324",
        "mean_anomaly" : "34.1422844978296",
        "mean_motion" : ".4469980078749594",
        "equinox" : "J2000"
      }
    }, {
      "links" : {
        "self" : "https://api.nasa.gov/neo/rest/v1/neo/3698489?api_key=t0TVs3DtDT2H8Oy2Zy8m2eVrNsAVKAexjcZXUckd"
      },
      "neo_reference_id" : "3698489",
      "name" : "(2014 HK196)",
      "nasa_jpl_url" : "http://ssd.jpl.nasa.gov/sbdb.cgi?sstr=3698489",
      "absolute_magnitude_h" : 26.5,
      "estimated_diameter" : {
        "kilometers" : {
          "estimated_diameter_min" : 0.0133215567,
          "estimated_diameter_max" : 0.0297879063
        },
        "meters" : {
          "estimated_diameter_min" : 13.3215566698,
          "estimated_diameter_max" : 29.7879062798
        },
        "miles" : {
          "estimated_diameter_min" : 0.008277629,
          "estimated_diameter_max" : 0.0185093411
        },
        "feet" : {
          "estimated_diameter_min" : 43.7058959846,
          "estimated_diameter_max" : 97.7293544391
        }
      },
      "is_potentially_hazardous_asteroid" : false,
      "close_approach_data" : [ {
        "close_approach_date" : "2014-03-22",
        "epoch_date_close_approach" : 1395471600000,
        "relative_velocity" : {
          "kilometers_per_second" : "7.7699417999",
          "kilometers_per_hour" : "27971.7904794871",
          "miles_per_hour" : "17380.5828121013"
        },
        "miss_distance" : {
          "astronomical" : "0.0500022468",
          "lunar" : "19.4508743286",
          "kilometers" : "7480230",
          "miles" : "4647999.5"
        },
        "orbiting_body" : "Earth"
      } ],
      "orbital_data" : {
        "orbit_id" : "3",
        "orbit_determination_date" : "2017-04-06 08:41:05",
        "orbit_uncertainty" : "9",
        "minimum_orbit_intersection" : ".0397748",
        "jupiter_tisserand_invariant" : "3.498",
        "epoch_osculation" : "2456772.5",
        "eccentricity" : ".5334891908532333",
        "semi_major_axis" : "2.159925758970181",
        "inclination" : "2.755043366117174",
        "ascending_node_longitude" : "214.4210289643569",
        "orbital_period" : "1159.462381481981",
        "perihelion_distance" : "1.007628713514123",
        "perihelion_argument" : "304.4597802655078",
        "aphelion_distance" : "3.312222804426238",
        "perihelion_time" : "2456720.915163382385",
        "mean_anomaly" : "16.0165103059275",
        "mean_motion" : ".3104887280084598",
        "equinox" : "J2000"
      }
    }, {
      "links" : {
        "self" : "https://api.nasa.gov/neo/rest/v1/neo/3698498?api_key=t0TVs3DtDT2H8Oy2Zy8m2eVrNsAVKAexjcZXUckd"
      },
      "neo_reference_id" : "3698498",
      "name" : "(2014 HW196)",
      "nasa_jpl_url" : "http://ssd.jpl.nasa.gov/sbdb.cgi?sstr=3698498",
      "absolute_magnitude_h" : 25.6,
      "estimated_diameter" : {
        "kilometers" : {
          "estimated_diameter_min" : 0.0201629919,
          "estimated_diameter_max" : 0.0450858206
        },
        "meters" : {
          "estimated_diameter_min" : 20.1629919443,
          "estimated_diameter_max" : 45.0858206172
        },
        "miles" : {
          "estimated_diameter_min" : 0.0125286985,
          "estimated_diameter_max" : 0.0280150214
        },
        "feet" : {
          "estimated_diameter_min" : 66.1515504905,
          "estimated_diameter_max" : 147.9193637137
        }
      },
      "is_potentially_hazardous_asteroid" : false,
      "close_approach_data" : [ {
        "close_approach_date" : "2014-03-22",
        "epoch_date_close_approach" : 1395471600000,
        "relative_velocity" : {
          "kilometers_per_second" : "10.6483860092",
          "kilometers_per_hour" : "38334.189633034",
          "miles_per_hour" : "23819.374663926"
        },
        "miss_distance" : {
          "astronomical" : "0.1614005037",
          "lunar" : "62.7847938538",
          "kilometers" : "24145170",
          "miles" : "15003114"
        },
        "orbiting_body" : "Earth"
      } ],
      "orbital_data" : {
        "orbit_id" : "6",
        "orbit_determination_date" : "2017-04-06 08:41:03",
        "orbit_uncertainty" : "9",
        "minimum_orbit_intersection" : ".131427",
        "jupiter_tisserand_invariant" : "3.643",
        "epoch_osculation" : "2456771.5",
        "eccentricity" : ".5383395547236411",
        "semi_major_axis" : "1.973627870150141",
        "inclination" : "14.17277134845532",
        "ascending_node_longitude" : "34.18087653932216",
        "orbital_period" : "1012.736192641075",
        "perihelion_distance" : ".9111459213433457",
        "perihelion_argument" : "99.35054614189698",
        "aphelion_distance" : "3.036109818956936",
        "perihelion_time" : "2456697.656432722450",
        "mean_anomaly" : "26.24936722226887",
        "mean_motion" : ".3554726320792094",
        "equinox" : "J2000"
      }
    } ]
  }
}